SL-14 R/B               
1 16496U 86006B   26101.29487830  .00000748  00000+0  76491-4 0  9996
2 16496  82.5275 229.0472 0076926 163.5618 196.8122 14.86875044154054
COSMOS 1743             
1 16719U 86034A   26101.10039029  .00045362  00000+0  52600-3 0  9994
2 16719  82.5307  39.7430 0006551 138.1173 222.0587 15.61579774185303
SL-14 R/B               
1 16792U 86046B   26101.27211693  .00000414  00000+0  44766-4 0  9999
2 16792  82.4828  49.3918 0024478 118.4668 241.9018 14.85625051131245
SL-14 R/B               
1 16882U 86055B   26101.06531764  .00000382  00000+0  41148-4 0  9995
2 16882  82.5168  96.2326 0017790 221.4283 204.4419 14.85673686124174
AJISAI (EGS)            
1 16908U 86061A   26101.24527958 -.00000081  00000+0  11431-3 0  9999
2 16908  50.0120 353.2414 0011387  10.7581  83.1241 12.44515743472051
SL-14 R/B               
1 17567U 87024B   26101.29365670  .00000406  00000+0  43379-4 0  9994
2 17567  82.5275  62.1127 0019012 148.5010 211.7349 14.86166009 92973
COSMOS 1833             
1 17589U 87027A   26101.14049834 -.00000300  00000+0 -13483-3 0  9993
2 17589  70.9163 257.8069 0022697 165.4006 194.7776 14.13040653 14905
SL-16 R/B               
1 17590U 87027B   26101.30227937 -.00000149  00000+0 -50134-4 0  9991
2 17590  71.0037 207.7693 0002948  57.6860 302.4549 14.17170273 19966
SL-14 R/B               
1 17912U 87038B   26101.17060646  .00000379  00000+0  41003-4 0  9996
2 17912  82.4984 266.1987 0020523  59.6919 300.6324 14.85401607 84058
COSMOS 1844             
1 17973U 87041A   26101.07026626  .00000023  00000+0  36878-4 0  9996
2 17973  70.9010 325.8794 0032051 330.1914  29.7380 14.14564894  8166
SL-14 R/B               
1 18153U 87055B   26101.07439383  .00000352  00000+0  37778-4 0  9995
2 18153  82.4984 318.5097 0019104 266.4061  93.4971 14.85661295 74740
COSMOS 1867             
1 18187U 87060A   26101.06655539 -.00000059  00000+0  15509-4 0  9993
2 18187  65.0109 216.0304 0015091 280.4303  79.5080 14.31508343 24579
SL-14 R/B               
1 18749U 88001B   26100.60050623  .00000365  00000+0  39276-4 0  9991
2 18749  82.5148 165.3561 0019294 129.9718 230.3196 14.85562906 46761
COSMOS 1933             
1 18958U 88020A   26101.28466927  .00003264  00000+0  15764-3 0  9993
2 18958  82.5138 218.6561 0005515  89.3642 270.8224 15.18310002 55171
SL-3 R/B                
1 19046U 88032B   26101.25134048  .00003903  00000+0  18124-3 0  9991
2 19046  97.5228  84.4052 0027496 118.6384 241.7621 15.20282737 57054
SL-16 R/B               
1 19120U 88039B   26101.18168818  .00000159  00000+0  97640-4 0  9996
2 19120  71.0174 359.8448 0023971 288.1954  71.6561 14.19621728962997
COSMOS 1953             
1 19210U 88050A   26101.09053531  .00006054  00000+0  21318-3 0  9992
2 19210  82.5060 125.6436 0011176  20.3858 339.7825 15.29049308 42739
