[{"OBJECT_NAME":"SL-14 R/B","OBJECT_ID":"1986-006B","EPOCH":"2026-04-11T07:04:37.485120","MEAN_MOTION":14.86875044,"ECCENTRICITY":0.00769268,"INCLINATION":82.5275,"RA_OF_ASC_NODE":229.0472,"ARG_OF_PERICENTER":163.5618,"MEAN_ANOMALY":196.8122,"EPHEMERIS_TYPE":0,"CLASSIFICATION_TYPE":"U","NORAD_CAT_ID":16496,"ELEMENT_SET_NO":999,"REV_AT_EPOCH":15405,"BSTAR":7.6490785e-5,"MEAN_MOTION_DOT":7.48e-6,"MEAN_MOTION_DDOT":0},{"OBJECT_NAME":"COSMOS 1743","OBJECT_ID":"1986-034A","EPOCH":"2026-04-11T02:24:33.721056","MEAN_MOTION":15.61579774,"ECCENTRICITY":0.00065519,"INCLINATION":82.5307,"RA_OF_ASC_NODE":39.743,"ARG_OF_PERICENTER":138.1173,"MEAN_ANOMALY":222.0587,"EPHEMERIS_TYPE":0,"CLASSIFICATION_TYPE":"U","NORAD_CAT_ID":16719,"ELEMENT_SET_NO":999,"REV_AT_EPOCH":18530,"BSTAR":0.0005259981,"MEAN_MOTION_DOT":0.00045362,"MEAN_MOTION_DDOT":0},{"OBJECT_NAME":"SL-14 R/B","OBJECT_ID":"1986-046B","EPOCH":"2026-04-11T06:31:50.902752","MEAN_MOTION":14.85625051,"ECCENTRICITY":0.0024478,"INCLINATION":82.4828,"RA_OF_ASC_NODE":49.3918,"ARG_OF_PERICENTER":118.4668,"MEAN_ANOMALY":241.9018,"EPHEMERIS_TYPE":0,"CLASSIFICATION_TYPE":"U","NORAD_CAT_ID":16792,"ELEMENT_SET_NO":999,"REV_AT_EPOCH":13124,"BSTAR":4.4765928e-5,"MEAN_MOTION_DOT":4.14e-6,"MEAN_MOTION_DDOT":0},{"OBJECT_NAME":"SL-14 R/B","OBJECT_ID":"1986-055B","EPOCH":"2026-04-11T01:34:03.444096","MEAN_MOTION":14.85673686,"ECCENTRICITY":0.00177909,"INCLINATION":82.5168,"RA_OF_ASC_NODE":96.2326,"ARG_OF_PERICENTER":221.4283,"MEAN_ANOMALY":204.4419,"EPHEMERIS_TYPE":0,"CLASSIFICATION_TYPE":"U","NORAD_CAT_ID":16882,"ELEMENT_SET_NO":999,"REV_AT_EPOCH":12417,"BSTAR":4.1148294e-5,"MEAN_MOTION_DOT":3.82e-6,"MEAN_MOTION_DDOT":0},{"OBJECT_NAME":"AJISAI (EGS)","OBJECT_ID":"1986-061A","EPOCH":"2026-04-11T05:53:12.155712","MEAN_MOTION":12.44515743,"ECCENTRICITY":0.00113877,"INCLINATION":50.012,"RA_OF_ASC_NODE":353.2414,"ARG_OF_PERICENTER":10.7581,"MEAN_ANOMALY":83.1241,"EPHEMERIS_TYPE":0,"CLASSIFICATION_TYPE":"U","NORAD_CAT_ID":16908,"ELEMENT_SET_NO":999,"REV_AT_EPOCH":47205,"BSTAR":0.00011430788,"MEAN_MOTION_DOT":-8.1e-7,"MEAN_MOTION_DDOT":0},{"OBJECT_NAME":"SL-14 R/B","OBJECT_ID":"1987-024B","EPOCH":"2026-04-11T07:02:51.938880","MEAN_MOTION":14.86166009,"ECCENTRICITY":0.00190125,"INCLINATION":82.5275,"RA_OF_ASC_NODE":62.1127,"ARG_OF_PERICENTER":148.501,"MEAN_ANOMALY":211.7349,"EPHEMERIS_TYPE":0,"CLASSIFICATION_TYPE":"U","NORAD_CAT_ID":17567,"ELEMENT_SET_NO":999,"REV_AT_EPOCH":9297,"BSTAR":4.3379206e-5,"MEAN_MOTION_DOT":4.06e-6,"MEAN_MOTION_DDOT":0},{"OBJECT_NAME":"COSMOS 1833","OBJECT_ID":"1987-027A","EPOCH":"2026-04-11T03:22:19.056576","MEAN_MOTION":14.13040653,"ECCENTRICITY":0.00226971,"INCLINATION":70.9163,"RA_OF_ASC_NODE":257.8069,"ARG_OF_PERICENTER":165.4006,"MEAN_ANOMALY":194.7776,"EPHEMERIS_TYPE":0,"CLASSIFICATION_TYPE":"U","NORAD_CAT_ID":17589,"ELEMENT_SET_NO":999,"REV_AT_EPOCH":1490,"BSTAR":-0.00013482715,"MEAN_MOTION_DOT":-3.0e-6,"MEAN_MOTION_DDOT":0},{"OBJECT_NAME":"SL-16 R/B","OBJECT_ID":"1987-027B","EPOCH":"2026-04-11T07:15:16.937568","MEAN_MOTION":14.17170273,"ECCENTRICITY":0.00029485,"INCLINATION":71.0037,"RA_OF_ASC_NODE":207.7693,"ARG_OF_PERICENTER":57.686,"MEAN_ANOMALY":302.4549,"EPHEMERIS_TYPE":0,"CLASSIFICATION_TYPE":"U","NORAD_CAT_ID":17590,"ELEMENT_SET_NO":999,"REV_AT_EPOCH":1996,"BSTAR":-5.013364e-5,"MEAN_MOTION_DOT":-1.49e-6,"MEAN_MOTION_DDOT":0},{"OBJECT_NAME":"SL-14 R/B","OBJECT_ID":"1987-038B","EPOCH":"2026-04-11T04:05:40.398144","MEAN_MOTION":14.85401607,"ECCENTRICITY":0.00205234,"INCLINATION":82.4984,"RA_OF_ASC_NODE":266.1987,"ARG_OF_PERICENTER":59.6919,"MEAN_ANOMALY":300.6324,"EPHEMERIS_TYPE":0,"CLASSIFICATION_TYPE":"U","NORAD_CAT_ID":17912,"ELEMENT_SET_NO":999,"REV_AT_EPOCH":8405,"BSTAR":4.1003199e-5,"MEAN_MOTION_DOT":3.79e-6,"MEAN_MOTION_DDOT":0},{"OBJECT_NAME":"COSMOS 1844","OBJECT_ID":"1987-041A","EPOCH":"2026-04-11T01:41:11.004864","MEAN_MOTION":14.14564894,"ECCENTRICITY":0.00320511,"INCLINATION":70.901,"RA_OF_ASC_NODE":325.8794,"ARG_OF_PERICENTER":330.1914,"MEAN_ANOMALY":29.738,"EPHEMERIS_TYPE":0,"CLASSIFICATION_TYPE":"U","NORAD_CAT_ID":17973,"ELEMENT_SET_NO":999,"REV_AT_EPOCH":816,"BSTAR":3.6878114e-5,"MEAN_MOTION_DOT":2.3e-7,"MEAN_MOTION_DDOT":0},{"OBJECT_NAME":"SL-14 R/B","OBJECT_ID":"1987-055B","EPOCH":"2026-04-11T01:47:07.626912","MEAN_MOTION":14.85661295,"ECCENTRICITY":0.00191042,"INCLINATION":82.4984,"RA_OF_ASC_NODE":318.5097,"ARG_OF_PERICENTER":266.4061,"MEAN_ANOMALY":93.4971,"EPHEMERIS_TYPE":0,"CLASSIFICATION_TYPE":"U","NORAD_CAT_ID":18153,"ELEMENT_SET_NO":999,"REV_AT_EPOCH":7474,"BSTAR":3.7777857e-5,"MEAN_MOTION_DOT":3.52e-6,"MEAN_MOTION_DDOT":0},{"OBJECT_NAME":"COSMOS 1867","OBJECT_ID":"1987-060A","EPOCH":"2026-04-11T01:35:50.385696","MEAN_MOTION":14.31508343,"ECCENTRICITY":0.0015091,"INCLINATION":65.0109,"RA_OF_ASC_NODE":216.0304,"ARG_OF_PERICENTER":280.4303,"MEAN_ANOMALY":79.508,"EPHEMERIS_TYPE":0,"CLASSIFICATION_TYPE":"U","NORAD_CAT_ID":18187,"ELEMENT_SET_NO":999,"REV_AT_EPOCH":2457,"BSTAR":1.5509319e-5,"MEAN_MOTION_DOT":-5.9e-7,"MEAN_MOTION_DDOT":0},{"OBJECT_NAME":"SL-14 R/B","OBJECT_ID":"1988-001B","EPOCH":"2026-04-10T14:24:43.738272","MEAN_MOTION":14.85562906,"ECCENTRICITY":0.0019294,"INCLINATION":82.5148,"RA_OF_ASC_NODE":165.3561,"ARG_OF_PERICENTER":129.9718,"MEAN_ANOMALY":230.3196,"EPHEMERIS_TYPE":0,"CLASSIFICATION_TYPE":"U","NORAD_CAT_ID":18749,"ELEMENT_SET_NO":999,"REV_AT_EPOCH":4676,"BSTAR":3.9275622e-5,"MEAN_MOTION_DOT":3.65e-6,"MEAN_MOTION_DDOT":0},{"OBJECT_NAME":"COSMOS 1933","OBJECT_ID":"1988-020A","EPOCH":"2026-04-11T06:49:55.424928","MEAN_MOTION":15.18310002,"ECCENTRICITY":0.00055157,"INCLINATION":82.5138,"RA_OF_ASC_NODE":218.6561,"ARG_OF_PERICENTER":89.3642,"MEAN_ANOMALY":270.8224,"EPHEMERIS_TYPE":0,"CLASSIFICATION_TYPE":"U","NORAD_CAT_ID":18958,"ELEMENT_SET_NO":999,"REV_AT_EPOCH":5517,"BSTAR":0.00015763873,"MEAN_MOTION_DOT":3.264e-5,"MEAN_MOTION_DDOT":0},{"OBJECT_NAME":"SL-3 R/B","OBJECT_ID":"1988-032B","EPOCH":"2026-04-11T06:01:55.817472","MEAN_MOTION":15.20282737,"ECCENTRICITY":0.00274963,"INCLINATION":97.5228,"RA_OF_ASC_NODE":84.4052,"ARG_OF_PERICENTER":118.6384,"MEAN_ANOMALY":241.7621,"EPHEMERIS_TYPE":0,"CLASSIFICATION_TYPE":"U","NORAD_CAT_ID":19046,"ELEMENT_SET_NO":999,"REV_AT_EPOCH":5705,"BSTAR":0.00018123996,"MEAN_MOTION_DOT":3.903e-5,"MEAN_MOTION_DDOT":0},{"OBJECT_NAME":"SL-16 R/B","OBJECT_ID":"1988-039B","EPOCH":"2026-04-11T04:21:37.858752","MEAN_MOTION":14.19621728,"ECCENTRICITY":0.00239717,"INCLINATION":71.0174,"RA_OF_ASC_NODE":359.8448,"ARG_OF_PERICENTER":288.1954,"MEAN_ANOMALY":71.6561,"EPHEMERIS_TYPE":0,"CLASSIFICATION_TYPE":"U","NORAD_CAT_ID":19120,"ELEMENT_SET_NO":999,"REV_AT_EPOCH":96299,"BSTAR":9.7639746e-5,"MEAN_MOTION_DOT":1.59e-6,"MEAN_MOTION_DDOT":0},{"OBJECT_NAME":"COSMOS 1953","OBJECT_ID":"1988-050A","EPOCH":"2026-04-11T02:10:22.250784","MEAN_MOTION":15.29049308,"ECCENTRICITY":0.00111761,"INCLINATION":82.506,"RA_OF_ASC_NODE":125.6436,"ARG_OF_PERICENTER":20.3858,"MEAN_ANOMALY":339.7825,"EPHEMERIS_TYPE":0,"CLASSIFICATION_TYPE":"U","NORAD_CAT_ID":19210,"ELEMENT_SET_NO":999,"REV_AT_EPOCH":4273,"BSTAR":0.00021317571,"MEAN_MOTION_DOT":6.054e-5,"MEAN_MOTION_DDOT":0}]
